SWARM B                 
1 39451U 13067A   26190.32617870  .00002528  00000+0  89412-4 0  9995
2 39451  87.7452 335.5908 0002529  80.9850 279.1686 15.28692800686626
SWARM A                 
1 39452U 13067B   26190.28327636  .00007726  00000+0  13064-3 0  9993
2 39452  87.3310  48.0269 0003299  95.6190 264.5448 15.51379849709673
SWARM C                 
1 39453U 13067C   26190.28318023  .00007800  00000+0  13190-3 0  9997
2 39453  87.3310  46.6079 0003293  95.6585 264.5052 15.51379027709634
BRITE-CA1 (TORONTO)     
1 40020U 14033L   26190.18755172  .00000733  00000+0  11766-3 0  9997
2 40020  97.9764 318.7133 0078005 205.5751 154.1590 14.72715027645456
OCO 2                   
1 40059U 14035A   26190.26694881  .00000262  00000+0  68161-4 0  9998
2 40059  98.2020 131.2243 0001473  82.0124 278.1242 14.57129382639263
BRITE-PL2 (HEWELIUSZ)   
1 40119U 14049B   26190.26496503  .00001666  00000+0  15885-3 0  9994
2 40119  97.9114 302.4379 0014777  41.3663 318.8673 14.94675108644741
MMS 1                   
1 40482U 15011A   26190.25002315 -.00000771  00000+0  00000+0 0  9996
2 40482  72.3843 348.5273 8300417 167.9466  28.9639  0.28350650  1345
MMS 2                   
1 40483U 15011B   26190.25002315 -.00000772  00000+0  00000+0 0  9998
2 40483  72.3881 348.5264 8303216 167.9497  28.9525  0.28350524  1346
MMS 3                   
1 40484U 15011C   26190.25002315 -.00000771  00000+0  00000+0 0  9998
2 40484  72.3879 348.5383 8301582 167.9574  28.9264  0.28350488  1312
MMS 4                   
1 40485U 15011D   26190.25002315 -.00000771  00000+0  00000+0 0  9999
2 40485  72.3837 348.5216 8301539 167.9671  28.9207  0.28350632  1376
ASTROSAT                
1 40930U 15052A   26189.95508022  .00001342  00000+0  81553-4 0  9991
2 40930   5.9980 358.6565 0008144 341.6752  18.3082 14.82545684583063
DAMPE                   
1 41173U 15078A   26190.26237340  .00001114  00000+0  39940-4 0  9997
2 41173  97.4567 195.8388 0012246   6.7079 353.4323 15.30844082587921
PISAT                   
1 41784U 16059B   26189.94075046  .00000644  00000+0  11700-3 0  9991
2 41784  97.8186 189.4594 0030131 133.9612 226.4087 14.69022214522939
HXMT (HUIYAN)           
1 42758U 17034A   26190.10325877  .00003187  00000+0  16053-3 0  9998
2 42758  43.0146  60.9912 0032719 283.6438  76.0768 15.18652205500991
FLYING LAPTOP           
1 42831U 17042G   26190.31481613  .00002194  00000+0  17440-3 0  9991
2 42831  97.4786 345.0110 0019875  51.1476 309.1518 15.01286913489777
ZHANGHENG 1-01 (CSES-1) 
1 43194U 18015C   26190.63928307  .00007768  00000+0  35687-3 0  9991
2 43194  97.6884 356.7493 0015945 183.8929 176.2184 15.20561155468059
SALSAT                  
1 46495U 20068K   26190.25177099  .00005482  00000+0  19084-3 0  9995
2 46495  97.8858 194.6644 0008593 215.0810 144.9864 15.30117525318739
IXPE                    
1 49954U 21121A   26190.33335648  .00009025  00000+0  47763-3 0  9996
2 49954   0.2289 149.5674 0006790  57.2628  46.8243 15.10452804  5903
