OBJECT_NAME,OBJECT_ID,EPOCH,MEAN_MOTION,ECCENTRICITY,INCLINATION,RA_OF_ASC_NODE,ARG_OF_PERICENTER,MEAN_ANOMALY,EPHEMERIS_TYPE,CLASSIFICATION_TYPE,NORAD_CAT_ID,ELEMENT_SET_NO,REV_AT_EPOCH,BSTAR,MEAN_MOTION_DOT,MEAN_MOTION_DDOT
SWARM B,2013-067A,2026-07-09T07:49:41.839680,15.28692800,.00025298,87.7452,335.5908,80.9850,279.1686,0,U,39451,999,68662,.89411918E-4,.2528E-4,0
SWARM A,2013-067B,2026-07-09T06:47:55.077504,15.51379849,.00032996,87.3310,48.0269,95.6190,264.5448,0,U,39452,999,70967,.13064135E-3,.7726E-4,0
SWARM C,2013-067C,2026-07-09T06:47:46.771872,15.51379027,.00032931,87.3310,46.6079,95.6585,264.5052,0,U,39453,999,70963,.13190264E-3,.78E-4,0
BRITE-CA1 (TORONTO),2014-033L,2026-07-09T04:30:04.468608,14.72715027,.00780057,97.9764,318.7133,205.5751,154.1590,0,U,40020,999,64545,.1176575E-3,.733E-5,0
OCO 2,2014-035A,2026-07-09T06:24:24.377184,14.57129382,.00014734,98.2020,131.2243,82.0124,278.1242,0,U,40059,999,63926,.6816117E-4,.262E-5,0
BRITE-PL2 (HEWELIUSZ),2014-049B,2026-07-09T06:21:32.978592,14.94675108,.00147773,97.9114,302.4379,41.3663,318.8673,0,U,40119,999,64474,.15885348E-3,.1666E-4,0
MMS 1,2015-011A,2026-07-09T06:00:02.000160,0.28350650,.83004173,72.3843,348.5273,167.9466,28.9639,0,U,40482,999,134,0,-.771E-5,0
MMS 2,2015-011B,2026-07-09T06:00:02.000160,0.28350524,.83032168,72.3881,348.5264,167.9497,28.9525,0,U,40483,999,134,0,-.772E-5,0
MMS 3,2015-011C,2026-07-09T06:00:02.000160,0.28350488,.83015822,72.3879,348.5383,167.9574,28.9264,0,U,40484,999,131,0,-.771E-5,0
MMS 4,2015-011D,2026-07-09T06:00:02.000160,0.28350632,.83015392,72.3837,348.5216,167.9671,28.9207,0,U,40485,999,137,0,-.771E-5,0
ASTROSAT,2015-052A,2026-07-08T22:55:18.931008,14.82545684,.00081445,5.9980,358.6565,341.6752,18.3082,0,U,40930,999,58306,.81553232E-4,.1342E-4,0
DAMPE,2015-078A,2026-07-09T06:17:49.061760,15.30844082,.00122469,97.4567,195.8388,6.7079,353.4323,0,U,41173,999,58792,.39939508E-4,.1114E-4,0
PISAT,2016-059B,2026-07-08T22:34:40.839744,14.69022214,.00301313,97.8186,189.4594,133.9612,226.4087,0,U,41784,999,52293,.11699948E-3,.644E-5,0
HXMT (HUIYAN),2017-034A,2026-07-09T02:28:41.557728,15.18652205,.00327194,43.0146,60.9912,283.6438,76.0768,0,U,42758,999,50099,.16052574E-3,.3187E-4,0
FLYING LAPTOP,2017-042G,2026-07-09T07:33:20.113632,15.01286913,.00198752,97.4786,345.0110,51.1476,309.1518,0,U,42831,999,48977,.17440082E-3,.2194E-4,0
ZHANGHENG 1-01 (CSES-1),2018-015C,2026-07-09T15:20:34.057248,15.20561155,.0015945,97.6884,356.7493,183.8929,176.2184,0,U,43194,999,46805,.35687E-3,.7768E-4,0
SALSAT,2020-068K,2026-07-09T06:02:33.013536,15.30117525,.00085936,97.8858,194.6644,215.0810,144.9864,0,U,46495,999,31873,.19084228E-3,.5482E-4,0
IXPE,2021-121A,2026-07-09T08:00:01.999872,15.10452804,.00067906,0.2289,149.5674,57.2628,46.8243,0,U,49954,999,590,.47762655E-3,.9025E-4,0
